NORAD_CAT_ID,OBJECT_NAME,OBJECT_TYPE,EPOCH,MEAN_MOTION,ECCENTRICITY,INCLINATION,RA_OF_ASC_NODE,ARG_OF_PERICENTER,MEAN_ANOMALY,BSTAR,MEAN_MOTION_DOT,MEAN_MOTION_DDOT,TLE_LINE0,TLE_LINE1,TLE_LINE2,SEMIMAJOR_AXIS,PERIOD,APOGEE,PERIGEE,DECAYED
54103.0,STARLINK-5200,PAYLOAD,2023-04-07 07:11:32,15.08848477,0.0001313,53.2181,65.9201,95.3775,264.7367,0.00026184,3.883e-05,0.0,0 STARLINK-5200,1 54103U 22136BE  23097.29968128  .00003883  00000-0  26184-3 0  9999,2 54103  53.2181  65.9201 0001313  95.3775 264.7367 15.08848477 26120,6917.854,95.437,540.628,538.811,0.0
54103.0,STARLINK-5200,PAYLOAD,2023-04-08 03:51:33,15.08845329,0.0001144,53.2185,62.0559,92.716,267.3963,0.00010111,1.322e-05,0.0,0 STARLINK-5200,1 54103U 22136BE  23098.16080306  .00001322  00000-0  10111-3 0  9998,2 54103  53.2185  62.0559 0001144  92.7160 267.3963 15.08845329 26729,6917.864,95.437,540.521,538.938,0.0
54103.0,STARLINK-5200,PAYLOAD,2023-04-08 07:02:19,15.08846629,0.0001277,53.2185,61.4601,96.4775,263.6362,0.00014267,1.984e-05,0.0,0 STARLINK-5200,1 54103U 22136BE  23098.29328218  .00001984  00000-0  14267-3 0  9999,2 54103  53.2185  61.4601 0001277  96.4775 263.6362 15.08846629 26276,6917.86,95.437,540.609,538.842,0.0
54103.0,STARLINK-5200,PAYLOAD,2023-04-09 03:42:20,15.08843145,0.0001006,53.2188,57.5924,111.8242,248.2857,0.0002987,4.47e-05,0.0,0 STARLINK-5200,1 54103U 22136BE  23099.15440318  .00004470  00000-0  29870-3 0  9990,2 54103  53.2188  57.5924 0001006 111.8242 248.2857 15.08843145 26878,6917.871,95.437,540.432,539.04,0.0
54103.0,STARLINK-5200,PAYLOAD,2023-04-09 06:53:06,15.08849185,0.0001331,53.2194,56.9969,114.1968,245.9164,0.00014466,2.016e-05,0.0,0 STARLINK-5200,1 54103U 22136BE  23099.28687910  .00002016  00000-0  14466-3 0  9994,2 54103  53.2194  56.9969 0001331 114.1968 245.9164 15.08849185 26425,6917.852,95.437,540.638,538.797,0.0
54103.0,STARLINK-5200,PAYLOAD,2023-04-10 06:43:53,15.08843894,0.0001073,53.2189,52.54,84.9687,275.1428,0.00010288,1.35e-05,0.0,0 STARLINK-5200,1 54103U 22136BE  23100.28048415  .00001350  00000-0  10288-3 0  9996,2 54103  53.2189  52.5400 0001073  84.9687 275.1428 15.08843894 27044,6917.868,95.437,540.476,538.991,0.0
54103.0,STARLINK-5200,PAYLOAD,2023-04-10 21:02:22,15.08845024,9.57e-05,53.2192,49.8637,83.1887,276.9214,0.00015498,2.18e-05,0.0,0 STARLINK-5200,1 54103U 22136BE  23100.87664393  .00002180  00000-0  15498-3 0  9990,2 54103  53.2192  49.8637 0000957  83.1887 276.9214 15.08845024 26668,6917.865,95.437,540.392,539.068,0.0
54103.0,STARLINK-5200,PAYLOAD,2023-04-11 06:34:40,15.08860308,0.0001102,53.2188,48.0799,90.4198,269.6921,0.0005705,8.808e-05,0.0,0 STARLINK-5200,1 54103U 22136BE  23101.27407661  .00008808  00000-0  57050-3 0  9991,2 54103  53.2188  48.0799 0001102  90.4198 269.6921 15.08860308 27197,6917.818,95.436,540.446,538.921,0.0
54103.0,STARLINK-5200,PAYLOAD,2023-04-11 20:53:09,15.0883901,0.0001529,53.2189,45.4021,88.499,271.6178,3.5812e-05,2.82e-06,0.0,0 STARLINK-5200,1 54103U 22136BE  23101.87024506  .00000282  00000-0  35812-4 0  9991,2 54103  53.2189  45.4021 0001529  88.4990 271.6178 15.08839010 26818,6917.883,95.438,540.806,538.691,0.0
54103.0,STARLINK-5200,PAYLOAD,2023-04-12 12:47:00,15.08834999,0.0001342,53.2193,42.4305,89.594,270.5206,-3.3113e-05,-8.15e-06,0.0,0 STARLINK-5200,1 54103U 22136BE  23102.53264996 -.00000815  00000-0 -33113-4 0  9990,2 54103  53.2193  42.4305 0001342  89.5940 270.5206 15.08834999 26917,6917.896,95.438,540.689,538.832,0.0
54103.0,STARLINK-5200,PAYLOAD,2023-04-13 06:16:15,15.08842788,0.0001304,53.2185,39.1595,87.5713,272.5428,0.00016704,2.372e-05,0.0,0 STARLINK-5200,1 54103U 22136BE  23103.26128939  .00002372  00000-0  16704-3 0  9991,2 54103  53.2185  39.1595 0001304  87.5713 272.5428 15.08842788 27022,6917.872,95.437,540.639,538.835,0.0
54103.0,STARLINK-5200,PAYLOAD,2023-04-14 04:31:38,15.08856709,0.0001418,53.218,34.9967,92.4068,267.7087,0.00049397,7.586e-05,0.0,0 STARLINK-5200,1 54103U 22136BE  23104.18864578  .00007586  00000-0  49397-3 0  9995,2 54103  53.2180  34.9967 0001418  92.4068 267.7087 15.08856709 27167,6917.829,95.436,540.675,538.713,0.0
54103.0,STARLINK-5200,PAYLOAD,2023-04-15 04:22:26,15.08847323,0.0001346,53.2176,30.5345,100.5293,259.5851,0.00025529,3.778e-05,0.0,0 STARLINK-5200,1 54103U 22136BE  23105.18224660  .00003778  00000-0  25529-3 0  9998,2 54103  53.2176  30.5345 0001346 100.5293 259.5851 15.08847323 27312,6917.858,95.437,540.654,538.792,0.0
54103.0,STARLINK-5200,PAYLOAD,2023-04-16 04:13:13,15.08846572,0.0001302,53.2182,26.0733,96.9474,263.1666,0.00040365,6.143e-05,0.0,0 STARLINK-5200,1 54103U 22136BE  23106.17585070  .00006143  00000-0  40365-3 0  9997,2 54103  53.2182  26.0733 0001302  96.9474 263.1666 15.08846572 27939,6917.86,95.437,540.626,538.825,0.0
54103.0,STARLINK-5200,PAYLOAD,2023-04-16 21:42:28,15.08841598,9.48e-05,53.2182,22.8038,96.8056,263.3045,0.00037692,5.716e-05,0.0,0 STARLINK-5200,1 54103U 22136BE  23106.90449290  .00005716  00000-0  37692-3 0  9995,2 54103  53.2182  22.8038 0000948  96.8056 263.3045 15.08841598 27577,6917.876,95.437,540.396,539.085,0.0
54103.0,STARLINK-5200,PAYLOAD,2023-04-17 04:04:00,15.08855459,0.0001026,53.2174,21.6143,98.1572,261.9536,0.00096533,0.00015115,0.0,0 STARLINK-5200,1 54103U 22136BE  23107.16945100  .00015115  00000-0  96533-3 0  9998,2 54103  53.2174  21.6143 0001026  98.1572 261.9536 15.08855459 28085,6917.833,95.437,540.408,538.988,0.0
54103.0,STARLINK-5200,PAYLOAD,2023-04-17 18:22:29,15.08840238,0.0001235,53.2186,18.9404,82.9563,277.1569,0.00047758,7.321e-05,0.0,0 STARLINK-5200,1 54103U 22136BE  23107.76561437  .00007321  00000-0  47758-3 0  9996,2 54103  53.2186  18.9404 0001235  82.9563 277.1569 15.08840238 28174,6917.88,95.438,540.599,538.89,0.0
54103.0,STARLINK-5200,PAYLOAD,2023-04-17 21:33:15,15.08840646,0.0001145,53.219,18.3455,82.8548,277.2574,0.00054665,8.423e-05,0.0,0 STARLINK-5200,1 54103U 22136BE  23107.89809497  .00008423  00000-0  54665-3 0  9990,2 54103  53.2190  18.3455 0001145  82.8548 277.2574 15.08840646 27721,6917.878,95.438,540.536,538.951,0.0
54103.0,STARLINK-5200,PAYLOAD,2023-04-18 03:54:47,15.08852864,0.0001283,53.2187,17.1555,87.2395,272.8744,0.00089376,0.0001397,0.0,0 STARLINK-5200,1 54103U 22136BE  23108.16305281  .00013970  00000-0  89376-3 0  9993,2 54103  53.2187  17.1555 0001283  87.2395 272.8744 15.08852864 27766,6917.841,95.437,540.594,538.819,0.0
54103.0,STARLINK-5200,PAYLOAD,2023-04-19 03:45:34,15.08865607,0.0001201,53.2186,12.6953,99.9061,260.2067,0.0014795,0.00023353,0.0,0 STARLINK-5200,1 54103U 22136BE  23109.15665273  .00023353  00000-0  14795-2 0  9991,2 54103  53.2186  12.6953 0001201  99.9061 260.2067 15.08865607 27912,6917.802,95.436,540.498,538.836,0.0
54103.0,STARLINK-5200,PAYLOAD,2023-04-20 02:00:59,15.08852466,0.0001152,53.2186,8.534,90.9453,269.1671,0.0013946,0.00021984,0.0,0 STARLINK-5200,1 54103U 22136BE  23110.08401708  .00021984  00000-0  13946-2 0  9991,2 54103  53.2186   8.5340 0001152  90.9453 269.1671 15.08852466 28051,6917.842,95.437,540.504,538.91,0.0
54103.0,STARLINK-5200,PAYLOAD,2023-04-21 00:16:23,15.08841338,0.0001536,53.2183,4.3704,84.1176,275.9992,0.0009793,0.00015332,0.0,0 STARLINK-5200,1 54103U 22136BE  23111.01138503  .00015332  00000-0  97930-3 0  9991,2 54103  53.2183   4.3704 0001536  84.1176 275.9992 15.08841338 28663,6917.876,95.437,540.804,538.679,0.0
54103.0,STARLINK-5200,PAYLOAD,2023-04-22 01:42:33,15.08861297,0.0001055,53.2168,359.6119,87.8587,272.2526,0.00077575,0.00012087,0.0,0 STARLINK-5200,1 54103U 22136BE  23112.07121683  .00012087  00000-0  77575-3 0  9996,2 54103  53.2168 359.6119 0001055  87.8587 272.2526 15.08861297 28821,6917.815,95.436,540.41,538.95,0.0
54103.0,STARLINK-5200,PAYLOAD,2023-04-22 22:22:34,15.08846617,0.000121,53.2167,355.7469,77.8207,282.2921,0.00024129,3.555e-05,0.0,0 STARLINK-5200,1 54103U 22136BE  23112.93233857  .00003555  00000-0  24129-3 0  9995,2 54103  53.2167 355.7469 0001210  77.8207 282.2921 15.08846617 28959,6917.86,95.437,540.562,538.888,0.0
54103.0,STARLINK-5200,PAYLOAD,2023-04-23 01:33:20,15.08848774,0.0001224,53.2167,355.1525,76.6667,283.4461,0.0004057,6.176e-05,0.0,0 STARLINK-5200,1 54103U 22136BE  23113.06481840  .00006176  00000-0  40570-3 0  9997,2 54103  53.2167 355.1525 0001224  76.6667 283.4461 15.08848774 28507,6917.854,95.437,540.565,538.872,0.0
54103.0,STARLINK-5200,PAYLOAD,2023-04-23 19:02:35,15.08840325,0.0001299,53.2152,351.8827,63.6949,296.4177,0.00018433,2.647e-05,0.0,0 STARLINK-5200,1 54103U 22136BE  23113.79346207  .00002647  00000-0  18433-3 0  9996,2 54103  53.2152 351.8827 0001299  63.6949 296.4177 15.08840325 28614,6917.879,95.438,540.643,538.846,0.0
54103.0,STARLINK-5200,PAYLOAD,2023-04-24 01:24:07,15.08854516,0.0001495,53.2152,350.6936,54.5775,305.5356,0.00051413,7.907e-05,0.0,0 STARLINK-5200,1 54103U 22136BE  23114.05841809  .00007907  00000-0  51413-3 0  9993,2 54103  53.2152 350.6936 0001495  54.5775 305.5356 15.08854516 28658,6917.836,95.437,540.735,538.667,0.0
54103.0,STARLINK-5200,PAYLOAD,2023-04-25 01:14:52,15.08894431,0.0001459,53.2185,346.2322,90.7037,269.4122,0.0010392,0.00016314,0.0,0 STARLINK-5200,1 54103U 22136BE  23115.05199316  .00016314  00000-0  10392-2 0  9995,2 54103  53.2185 346.2322 0001459  90.7037 269.4122 15.08894431 28803,6917.714,95.434,540.588,538.57,0.0
54103.0,STARLINK-5200,PAYLOAD,2023-04-26 02:41:05,15.08790117,0.0001177,53.2169,341.4739,126.641,233.469,-0.001228,-0.00019751,0.0,0 STARLINK-5200,1 54103U 22136BE  23116.11187258 -.00019751  00000-0 -12280-2 0  9993,2 54103  53.2169 341.4739 0001177 126.6410 233.4690 15.08790117 28969,6918.033,95.441,540.712,539.084,0.0
54103.0,STARLINK-5200,PAYLOAD,2023-04-26 21:45:43,15.08816709,0.000128,53.2176,337.9099,138.9061,221.2028,0.00029027,4.332e-05,0.0,0 STARLINK-5200,1 54103U 22136BE  23116.90675474  .00004332  00000-0  29027-3 0  9997,2 54103  53.2176 337.9099 0001280 138.9061 221.2028 15.08816709 29089,6917.952,95.439,540.702,538.931,0.0
